STARLINK-35122          
1 65510U 25198U   25279.30622323  .00104387  00000+0  18571-2 0  9994
2 65510  53.1582 276.5841 0001384  85.7974 274.3193 15.49353163  4869
STARLINK-35124          
1 65511U 25198V   25279.30587736  .00051515  00000+0  92736-3 0  9993
2 65511  53.1581 276.5837 0001587 103.4932 256.6254 15.49334561  4863
STARLINK-35149          
1 65512U 25198W   25279.30553576  .00066485  00000+0  11909-2 0  9993
2 65512  53.1585 276.5791 0001628  70.6603 289.4582 15.49364989  4868
STARLINK-35019          
1 65513U 25198X   25279.30519573  .00054112  00000+0  97350-3 0  9992
2 65513  53.1589 276.5774 0001588  73.5290 286.5894 15.49330979  4869
STARLINK-35026          
1 65514U 25198Y   25279.24033891  .00068917  00000+0  12344-2 0  9997
2 65514  53.1584 276.8839 0000804  65.6257 294.4836 15.49351111  4859
STARLINK-35241          
1 65515U 25198Z   25279.23999462  .00064872  00000+0  11629-2 0  9993
2 65515  53.1585 276.8806 0001174  98.0529 262.0613 15.49354786  4853
STARLINK-35216          
1 65516U 25198AA  25279.23965113  .00068362  00000+0  12245-2 0  9993
2 65516  53.1587 276.8793 0000864  88.4119 271.6989 15.49354369  4853
STARLINK-35228          
1 65517U 25198AB  25279.23931247  .00071898  00000+0  12878-2 0  9995
2 65517  53.1583 276.8771 0001305  83.1034 277.0124 15.49334180  4855
STARLINK-35232          
1 65518U 25198AC  25279.23896620  .00067953  00000+0  12175-2 0  9998
2 65518  53.1583 276.8752 0001340  77.5607 282.5552 15.49349547  4856
STARLINK-35164          
1 65519U 25198AD  25279.30313275  .00055799  00000+0  10035-2 0  9995
2 65519  53.1582 276.5637 0001480  67.7503 292.3663 15.49327640  4869
STARLINK-35112          
1 65520U 25200A   25279.50003471 -.01508457  00000+0 -37462-1 0  9996
2 65520  97.6031 346.1962 0001361  77.2856 347.9746 15.43350766  5817
STARLINK-35187          
1 65521U 25200B   25279.50003471  .00150592  00000+0  27259-2 0  9991
2 65521  97.6036 346.2031 0001837 108.6478 335.5232 15.49102791  5810
STARLINK-35188          
1 65522U 25200C   25279.50003471  .00138922  00000+0  25187-2 0  9993
2 65522  97.6036 346.2043 0001298  98.6645 349.3505 15.49101854  5768
STARLINK-35078          
1 65523U 25200D   25279.50003471  .00122765  00000+0  22230-2 0  9998
2 65523  97.6034 346.2026 0001530  96.1933 349.8713 15.49198545  5860
STARLINK-35055          
1 65524U 25200E   25279.50003471  .00140380  00000+0  25447-2 0  9995
2 65524  97.6035 346.2052 0001499 101.6004 348.3354 15.49101074  5817
STARLINK-35057          
1 65525U 25200F   25279.50003471  .00146989  00000+0  26618-2 0  9998
2 65525  97.6039 346.2065 0001603  92.4743 359.3749 15.49105249  5863
STARLINK-34674          
1 65526U 25200G   25279.50003471  .00151871  00000+0  27490-2 0  9994
2 65526  97.6037 346.2075 0001462 105.4003 348.3758 15.49099413  5919
