[{"OBJECT_NAME":"STARLINK-35122","OBJECT_ID":"2025-198U","EPOCH":"2025-10-06T07:20:57.687072","MEAN_MOTION":15.49353163,"ECCENTRICITY":0.0001384,"INCLINATION":53.1582,"RA_OF_ASC_NODE":276.5841,"ARG_OF_PERICENTER":85.7974,"MEAN_ANOMALY":274.3193,"EPHEMERIS_TYPE":0,"CLASSIFICATION_TYPE":"U","NORAD_CAT_ID":65510,"ELEMENT_SET_NO":999,"REV_AT_EPOCH":486,"BSTAR":0.0018571,"MEAN_MOTION_DOT":0.00104387,"MEAN_MOTION_DDOT":0},{"OBJECT_NAME":"STARLINK-35124","OBJECT_ID":"2025-198V","EPOCH":"2025-10-06T07:20:27.803904","MEAN_MOTION":15.49334561,"ECCENTRICITY":0.0001587,"INCLINATION":53.1581,"RA_OF_ASC_NODE":276.5837,"ARG_OF_PERICENTER":103.4932,"MEAN_ANOMALY":256.6254,"EPHEMERIS_TYPE":0,"CLASSIFICATION_TYPE":"U","NORAD_CAT_ID":65511,"ELEMENT_SET_NO":999,"REV_AT_EPOCH":486,"BSTAR":0.00092736,"MEAN_MOTION_DOT":0.00051515,"MEAN_MOTION_DDOT":0},{"OBJECT_NAME":"STARLINK-35149","OBJECT_ID":"2025-198W","EPOCH":"2025-10-06T07:19:58.289664","MEAN_MOTION":15.49364989,"ECCENTRICITY":0.0001628,"INCLINATION":53.1585,"RA_OF_ASC_NODE":276.5791,"ARG_OF_PERICENTER":70.6603,"MEAN_ANOMALY":289.4582,"EPHEMERIS_TYPE":0,"CLASSIFICATION_TYPE":"U","NORAD_CAT_ID":65512,"ELEMENT_SET_NO":999,"REV_AT_EPOCH":486,"BSTAR":0.0011909,"MEAN_MOTION_DOT":0.00066485,"MEAN_MOTION_DDOT":0},{"OBJECT_NAME":"STARLINK-35019","OBJECT_ID":"2025-198X","EPOCH":"2025-10-06T07:19:28.911072","MEAN_MOTION":15.49330979,"ECCENTRICITY":0.0001588,"INCLINATION":53.1589,"RA_OF_ASC_NODE":276.5774,"ARG_OF_PERICENTER":73.529,"MEAN_ANOMALY":286.5894,"EPHEMERIS_TYPE":0,"CLASSIFICATION_TYPE":"U","NORAD_CAT_ID":65513,"ELEMENT_SET_NO":999,"REV_AT_EPOCH":486,"BSTAR":0.0009735,"MEAN_MOTION_DOT":0.00054112,"MEAN_MOTION_DDOT":0},{"OBJECT_NAME":"STARLINK-35026","OBJECT_ID":"2025-198Y","EPOCH":"2025-10-06T05:46:05.281824","MEAN_MOTION":15.49351111,"ECCENTRICITY":8.04e-5,"INCLINATION":53.1584,"RA_OF_ASC_NODE":276.8839,"ARG_OF_PERICENTER":65.6257,"MEAN_ANOMALY":294.4836,"EPHEMERIS_TYPE":0,"CLASSIFICATION_TYPE":"U","NORAD_CAT_ID":65514,"ELEMENT_SET_NO":999,"REV_AT_EPOCH":485,"BSTAR":0.0012344,"MEAN_MOTION_DOT":0.00068917,"MEAN_MOTION_DDOT":0},{"OBJECT_NAME":"STARLINK-35241","OBJECT_ID":"2025-198Z","EPOCH":"2025-10-06T05:45:35.535168","MEAN_MOTION":15.49354786,"ECCENTRICITY":0.0001174,"INCLINATION":53.1585,"RA_OF_ASC_NODE":276.8806,"ARG_OF_PERICENTER":98.0529,"MEAN_ANOMALY":262.0613,"EPHEMERIS_TYPE":0,"CLASSIFICATION_TYPE":"U","NORAD_CAT_ID":65515,"ELEMENT_SET_NO":999,"REV_AT_EPOCH":485,"BSTAR":0.0011629,"MEAN_MOTION_DOT":0.00064872,"MEAN_MOTION_DDOT":0},{"OBJECT_NAME":"STARLINK-35216","OBJECT_ID":"2025-198AA","EPOCH":"2025-10-06T05:45:05.857632","MEAN_MOTION":15.49354369,"ECCENTRICITY":8.64e-5,"INCLINATION":53.1587,"RA_OF_ASC_NODE":276.8793,"ARG_OF_PERICENTER":88.4119,"MEAN_ANOMALY":271.6989,"EPHEMERIS_TYPE":0,"CLASSIFICATION_TYPE":"U","NORAD_CAT_ID":65516,"ELEMENT_SET_NO":999,"REV_AT_EPOCH":485,"BSTAR":0.0012245,"MEAN_MOTION_DOT":0.00068362,"MEAN_MOTION_DDOT":0},{"OBJECT_NAME":"STARLINK-35228","OBJECT_ID":"2025-198AB","EPOCH":"2025-10-06T05:44:36.597408","MEAN_MOTION":15.4933418,"ECCENTRICITY":0.0001305,"INCLINATION":53.1583,"RA_OF_ASC_NODE":276.8771,"ARG_OF_PERICENTER":83.1034,"MEAN_ANOMALY":277.0124,"EPHEMERIS_TYPE":0,"CLASSIFICATION_TYPE":"U","NORAD_CAT_ID":65517,"ELEMENT_SET_NO":999,"REV_AT_EPOCH":485,"BSTAR":0.0012878,"MEAN_MOTION_DOT":0.00071898,"MEAN_MOTION_DDOT":0},{"OBJECT_NAME":"STARLINK-35232","OBJECT_ID":"2025-198AC","EPOCH":"2025-10-06T05:44:06.679680","MEAN_MOTION":15.49349547,"ECCENTRICITY":0.000134,"INCLINATION":53.1583,"RA_OF_ASC_NODE":276.8752,"ARG_OF_PERICENTER":77.5607,"MEAN_ANOMALY":282.5552,"EPHEMERIS_TYPE":0,"CLASSIFICATION_TYPE":"U","NORAD_CAT_ID":65518,"ELEMENT_SET_NO":999,"REV_AT_EPOCH":485,"BSTAR":0.0012175,"MEAN_MOTION_DOT":0.00067953,"MEAN_MOTION_DDOT":0},{"OBJECT_NAME":"STARLINK-35164","OBJECT_ID":"2025-198AD","EPOCH":"2025-10-06T07:16:30.669600","MEAN_MOTION":15.4932764,"ECCENTRICITY":0.000148,"INCLINATION":53.1582,"RA_OF_ASC_NODE":276.5637,"ARG_OF_PERICENTER":67.7503,"MEAN_ANOMALY":292.3663,"EPHEMERIS_TYPE":0,"CLASSIFICATION_TYPE":"U","NORAD_CAT_ID":65519,"ELEMENT_SET_NO":999,"REV_AT_EPOCH":486,"BSTAR":0.0010035,"MEAN_MOTION_DOT":0.00055799,"MEAN_MOTION_DDOT":0},{"OBJECT_NAME":"STARLINK-35112","OBJECT_ID":"2025-200A","EPOCH":"2025-10-06T12:00:02.998944","MEAN_MOTION":15.43350766,"ECCENTRICITY":0.0001361,"INCLINATION":97.6031,"RA_OF_ASC_NODE":346.1962,"ARG_OF_PERICENTER":77.2856,"MEAN_ANOMALY":347.9746,"EPHEMERIS_TYPE":0,"CLASSIFICATION_TYPE":"U","NORAD_CAT_ID":65520,"ELEMENT_SET_NO":999,"REV_AT_EPOCH":581,"BSTAR":-0.037462,"MEAN_MOTION_DOT":-0.01508457,"MEAN_MOTION_DDOT":0},{"OBJECT_NAME":"STARLINK-35187","OBJECT_ID":"2025-200B","EPOCH":"2025-10-06T12:00:02.998944","MEAN_MOTION":15.49102791,"ECCENTRICITY":0.0001837,"INCLINATION":97.6036,"RA_OF_ASC_NODE":346.2031,"ARG_OF_PERICENTER":108.6478,"MEAN_ANOMALY":335.5232,"EPHEMERIS_TYPE":0,"CLASSIFICATION_TYPE":"U","NORAD_CAT_ID":65521,"ELEMENT_SET_NO":999,"REV_AT_EPOCH":581,"BSTAR":0.0027259,"MEAN_MOTION_DOT":0.00150592,"MEAN_MOTION_DDOT":0},{"OBJECT_NAME":"STARLINK-35188","OBJECT_ID":"2025-200C","EPOCH":"2025-10-06T12:00:02.998944","MEAN_MOTION":15.49101854,"ECCENTRICITY":0.0001298,"INCLINATION":97.6036,"RA_OF_ASC_NODE":346.2043,"ARG_OF_PERICENTER":98.6645,"MEAN_ANOMALY":349.3505,"EPHEMERIS_TYPE":0,"CLASSIFICATION_TYPE":"U","NORAD_CAT_ID":65522,"ELEMENT_SET_NO":999,"REV_AT_EPOCH":576,"BSTAR":0.0025187,"MEAN_MOTION_DOT":0.00138922,"MEAN_MOTION_DDOT":0},{"OBJECT_NAME":"STARLINK-35078","OBJECT_ID":"2025-200D","EPOCH":"2025-10-06T12:00:02.998944","MEAN_MOTION":15.49198545,"ECCENTRICITY":0.000153,"INCLINATION":97.6034,"RA_OF_ASC_NODE":346.2026,"ARG_OF_PERICENTER":96.1933,"MEAN_ANOMALY":349.8713,"EPHEMERIS_TYPE":0,"CLASSIFICATION_TYPE":"U","NORAD_CAT_ID":65523,"ELEMENT_SET_NO":999,"REV_AT_EPOCH":586,"BSTAR":0.002223,"MEAN_MOTION_DOT":0.00122765,"MEAN_MOTION_DDOT":0},{"OBJECT_NAME":"STARLINK-35055","OBJECT_ID":"2025-200E","EPOCH":"2025-10-06T12:00:02.998944","MEAN_MOTION":15.49101074,"ECCENTRICITY":0.0001499,"INCLINATION":97.6035,"RA_OF_ASC_NODE":346.2052,"ARG_OF_PERICENTER":101.6004,"MEAN_ANOMALY":348.3354,"EPHEMERIS_TYPE":0,"CLASSIFICATION_TYPE":"U","NORAD_CAT_ID":65524,"ELEMENT_SET_NO":999,"REV_AT_EPOCH":581,"BSTAR":0.0025447,"MEAN_MOTION_DOT":0.0014038,"MEAN_MOTION_DDOT":0},{"OBJECT_NAME":"STARLINK-35057","OBJECT_ID":"2025-200F","EPOCH":"2025-10-06T12:00:02.998944","MEAN_MOTION":15.49105249,"ECCENTRICITY":0.0001603,"INCLINATION":97.6039,"RA_OF_ASC_NODE":346.2065,"ARG_OF_PERICENTER":92.4743,"MEAN_ANOMALY":359.3749,"EPHEMERIS_TYPE":0,"CLASSIFICATION_TYPE":"U","NORAD_CAT_ID":65525,"ELEMENT_SET_NO":999,"REV_AT_EPOCH":586,"BSTAR":0.0026618,"MEAN_MOTION_DOT":0.00146989,"MEAN_MOTION_DDOT":0},{"OBJECT_NAME":"STARLINK-34674","OBJECT_ID":"2025-200G","EPOCH":"2025-10-06T12:00:02.998944","MEAN_MOTION":15.49099413,"ECCENTRICITY":0.0001462,"INCLINATION":97.6037,"RA_OF_ASC_NODE":346.2075,"ARG_OF_PERICENTER":105.4003,"MEAN_ANOMALY":348.3758,"EPHEMERIS_TYPE":0,"CLASSIFICATION_TYPE":"U","NORAD_CAT_ID":65526,"ELEMENT_SET_NO":999,"REV_AT_EPOCH":591,"BSTAR":0.002749,"MEAN_MOTION_DOT":0.00151871,"MEAN_MOTION_DDOT":0}]
